{
  "norad_id": 39441,
  "name": "NEE-02 KRYSAOR",
  "history": [
    {
      "epoch": "2026-03-28T18:25:31.973088",
      "apogee_km": 655.61644746599,
      "perigee_km": 563.4774062213437,
      "latitude_deg": -12.554589339691432,
      "longitude_deg": -2.1978076798841357,
      "semi_major_axis_km": 6987.683926843666,
      "eccentricity": 0.00659296,
      "inclination_deg": 97.8832,
      "raan_deg": 27.6007,
      "arg_perigee_deg": 334.7799,
      "mean_anomaly_deg": 25.0201,
      "mean_motion_rev_day": 14.86287699
    }
  ]
}